GLOBALSTAR M068         
1 32266U 07048D   25293.14056773 -.00000092  00000+0  68459-4 0  9999
2 32266  51.9879 281.3547 0001426  53.9336  68.9937 12.62830952833343
GLOBALSTAR M079         
1 37188U 10054A   25293.14215344 -.00000068  00000+0  19878-3 0  9992
2 37188  52.0015 119.4028 0000867 108.8824  10.7870 12.62268019692231
GLOBALSTAR M074         
1 37189U 10054B   25293.08797280 -.00000082  00000+0  12402-3 0  9992
2 37189  51.9994 118.8709 0000826  87.4233  25.5404 12.62272696692835
GLOBALSTAR M076         
1 37190U 10054C   25293.11591103 -.00000068  00000+0  20193-3 0  9994
2 37190  52.0007 118.9693 0000643  99.6980  19.4068 12.62266804692559
GLOBALSTAR M077         
1 37191U 10054D   25292.80529990 -.00000102  00000+0 -44443-4 0  9990
2 37191  52.0066  79.6724 0002005  43.9636 103.8512 12.36452495692856
GLOBALSTAR M075         
1 37192U 10054E   25293.05965240 -.00000062  00000+0  23060-3 0  9996
2 37192  51.9926 161.3284 0000864  78.3041  86.0963 12.62269042691611
GLOBALSTAR M073         
1 37193U 10054F   25292.81865545 -.00000102  00000+0  10924-4 0  9998
2 37193  52.0058  75.9741 0000747 118.0986  29.6460 12.62263678693579
GLOBALSTAR M083         
1 37739U 11033A   25293.19735538 -.00000089  00000+0  85115-4 0  9990
2 37739  51.9875  23.3793 0000656 125.3504 245.8071 12.62263711662642
GLOBALSTAR M088         
1 37740U 11033B   25293.18645661 -.00000090  00000+0  79486-4 0  9994
2 37740  52.0215 289.2628 0000486  67.1338  13.0157 12.62269062658182
GLOBALSTAR M091         
1 37741U 11033C   25293.18479847 -.00000098  00000+0  33950-4 0  9990
2 37741  51.9986 252.5858 0000659  77.4715 295.7427 12.62260742658971
GLOBALSTAR M085         
1 37742U 11033D   25292.94879425 -.00000082  00000+0  12188-3 0  9992
2 37742  52.0115 204.3872 0000866  83.9258 356.2682 12.62265831659457
GLOBALSTAR M081         
1 37743U 11033E   25293.14826486 -.00000086  00000+0  96706-4 0  9998
2 37743  51.9950 206.4896 0000628  80.4915  66.2860 12.62269350659625
GLOBALSTAR M089         
1 37744U 11033F   25292.92084984 -.00000071  00000+0  18316-3 0  9997
2 37744  51.9915 161.3865 0000716  62.8247 310.7943 12.62271846660446
GLOBALSTAR M084         
1 38040U 11080A   25292.72992976 -.00000105  00000+0 -76099-5 0  9999
2 38040  52.0032  29.3189 0000285  94.6277  70.7076 12.62269450638394
GLOBALSTAR M080         
1 38041U 11080B   25292.70146509 -.00000103  00000+0  52774-5 0  9992
2 38041  52.0082  31.0410 0001061  99.3914  65.7673 12.62269709638518
GLOBALSTAR M082         
1 38042U 11080C   25293.16326191 -.00000070  00000+0  18636-3 0  9991
2 38042  52.0099 345.1124 0000754 104.9819 290.2344 12.62263959639289
GLOBALSTAR M092         
1 38043U 11080D   25293.16696279 -.00000097  00000+0  39710-4 0  9995
2 38043  52.0078  75.4817 0000787  99.0928  72.0499 12.62267156637738
GLOBALSTAR M090         
1 38044U 11080E   25292.90310125 -.00000065  00000+0  21750-3 0  9999
2 38044  52.0143 339.7832 0000483 118.8597  52.6968 12.62263133639367
GLOBALSTAR M086         
1 38045U 11080F   25292.84891272 -.00000070  00000+0  18712-3 0  9990
2 38045  51.9917 340.2689 0000773 216.2434 315.3407 12.62278369639305
GLOBALSTAR M097         
1 39072U 13005A   25293.15546363 -.00000106  00000+0 -11213-4 0  9994
2 39072  52.0040 254.0144 0000423  83.9205 276.1710 12.62266625586595
GLOBALSTAR M093         
1 39073U 13005B   25293.05027670 -.00000105  00000+0 -46609-5 0  9996
2 39073  52.0096 247.5907 0000523 102.4829 257.6097 12.62265409586536
GLOBALSTAR M094         
1 39074U 13005C   25293.04996249 -.00000061  00000+0  23948-3 0  9992
2 39074  51.9940 161.9470 0000848  94.9892 265.1071 12.62264539588140
GLOBALSTAR M096         
1 39075U 13005D   25293.14233965 -.00000078  00000+0  14238-3 0  9993
2 39075  52.0066 210.2770 0000755  86.2497 273.8456 12.62267847587074
GLOBALSTAR M078         
1 39076U 13005E   25293.03723372 -.00000087  00000+0  91739-4 0  9990
2 39076  51.9871 294.9415 0001263  90.8333 269.2678 12.62261375585687
GLOBALSTAR M095         
1 39077U 13005F   25293.14242775 -.00000093  00000+0  59139-4 0  9991
2 39077  52.0081 291.8830 0000740 108.6188 251.4759 12.62260989585554
GLOBALSTAR M087         
1 52888U 22064A   25292.68044806 -.00000105  00000+0 -72188-5 0  9999
2 52888  51.9993  74.6604 0000945 113.9639 246.1327 12.62289414160760
